start=new Date('2022-11-28T00:00:00.000Z').valueOf();
sats=[{"RCS_SIZE":"LARGE","ARG_OF_PERICENTER":"94.5166","OBJECT_NAME":"STARLINK-1275","REF_FRAME":"TEME","MEAN_ANOMALY":"265.5979","OBJECT_ID":"2020-019AZ","CLASSIFICATION_TYPE":"U","EPHEMERIS_TYPE":"0","ELEMENT_SET_NO":"999","PERIAPSIS":"546.298","INCLINATION":"53.0548","LAUNCH_DATE":"2020-03-18","MEAN_MOTION":"15.06390321","ECCENTRICITY":"0.00013650","BSTAR":"-0.00000681030000","MEAN_MOTION_DOT":"-0.00000383","TLE_LINE2":"2 45407  53.0548 114.0241 0001365  94.5166 265.5979 15.06390321149317","PERIOD":"95.593","FILE":"3671921","NORAD_CAT_ID":"45407","TLE_LINE1":"1 45407U 20019AZ  22331.82994233 -.00000383  00000-0 -68103-5 0  9992","SITE":"AFETR","DECAY_DATE":null,"MEAN_MOTION_DDOT":"0.0000000000000","SEMIMAJOR_AXIS":"6925.378","GP_ID":"218988123","COUNTRY_CODE":"US","RA_OF_ASC_NODE":"114.0241","OBJECT_TYPE":"PAYLOAD","CENTER_NAME":"EARTH","TIME_SYSTEM":"UTC","EPOCH":"2022-11-27T19:55:07.017312","APOAPSIS":"548.189","MEAN_ELEMENT_THEORY":"SGP4","REV_AT_EPOCH":"14931"},{"RA_OF_ASC_NODE":"144.5642","GP_ID":"218988372","COUNTRY_CODE":"US","CENTER_NAME":"EARTH","OBJECT_TYPE":"PAYLOAD","REV_AT_EPOCH":"14888","APOAPSIS":"548.503","MEAN_ELEMENT_THEORY":"SGP4","EPOCH":"2022-11-27T17:02:39.920064","TIME_SYSTEM":"UTC","PERIOD":"95.592","FILE":"3671921","TLE_LINE1":"1 45408U 20019BA  22331.71018426  .00001241  00000-0  10217-3 0  9995","NORAD_CAT_ID":"45408","SEMIMAJOR_AXIS":"6925.347","SITE":"AFETR","DECAY_DATE":null,"MEAN_MOTION_DDOT":"0.0000000000000","PERIAPSIS":"545.921","ECCENTRICITY":"0.00018640","MEAN_MOTION":"15.06400395","LAUNCH_DATE":"2020-03-18","INCLINATION":"53.0540","TLE_LINE2":"2 45408  53.0540 144.5642 0001864  70.5583 289.5607 15.06400395148882","MEAN_MOTION_DOT":"0.00001241","BSTAR":"0.00010217000000","ARG_OF_PERICENTER":"70.5583","RCS_SIZE":"LARGE","REF_FRAME":"TEME","OBJECT_NAME":"STARLINK-1278","MEAN_ANOMALY":"289.5607","ELEMENT_SET_NO":"999","CLASSIFICATION_TYPE":"U","EPHEMERIS_TYPE":"0","OBJECT_ID":"2020-019BA"},{"FILE":"3671921","PERIOD":"95.593","DECAY_DATE":null,"SITE":"AFETR","MEAN_MOTION_DDOT":"0.0000000000000","SEMIMAJOR_AXIS":"6925.370","NORAD_CAT_ID":"45409","TLE_LINE1":"1 45409U 20019BB  22331.83825972  .00000393  00000-0  45312-4 0  9993","COUNTRY_CODE":"US","GP_ID":"218987621","RA_OF_ASC_NODE":"113.9865","EPOCH":"2022-11-27T20:07:05.639808","TIME_SYSTEM":"UTC","MEAN_ELEMENT_THEORY":"SGP4","APOAPSIS":"548.161","REV_AT_EPOCH":"14932","OBJECT_TYPE":"PAYLOAD","CENTER_NAME":"EARTH","OBJECT_NAME":"STARLINK-1282","REF_FRAME":"TEME","RCS_SIZE":"LARGE","ARG_OF_PERICENTER":"72.5805","OBJECT_ID":"2020-019BB","EPHEMERIS_TYPE":"0","CLASSIFICATION_TYPE":"U","ELEMENT_SET_NO":"999","MEAN_ANOMALY":"287.5330","PERIAPSIS":"546.310","BSTAR":"0.00004531200000","TLE_LINE2":"2 45409  53.0536 113.9865 0001336  72.5805 287.5330 15.06392896149325","MEAN_MOTION_DOT":"0.00000393","INCLINATION":"53.0536","LAUNCH_DATE":"2020-03-18","MEAN_MOTION":"15.06392896","ECCENTRICITY":"0.00013360"},{"TLE_LINE1":"1 45411U 20019BD  22331.72030451  .00000290  00000-0  38326-4 0  9997","NORAD_CAT_ID":"45411","SEMIMAJOR_AXIS":"6925.355","SITE":"AFETR","DECAY_DATE":null,"MEAN_MOTION_DDOT":"0.0000000000000","PERIOD":"95.592","FILE":"3671921","CENTER_NAME":"EARTH","OBJECT_TYPE":"PAYLOAD","REV_AT_EPOCH":"14932","APOAPSIS":"547.823","MEAN_ELEMENT_THEORY":"SGP4","TIME_SYSTEM":"UTC","EPOCH":"2022-11-27T17:17:14.309664","RA_OF_ASC_NODE":"114.5079","COUNTRY_CODE":"US","GP_ID":"218987372","MEAN_ANOMALY":"279.1068","ELEMENT_SET_NO":"999","EPHEMERIS_TYPE":"0","CLASSIFICATION_TYPE":"U","OBJECT_ID":"2020-019BD","ARG_OF_PERICENTER":"81.0019","RCS_SIZE":"LARGE","REF_FRAME":"TEME","OBJECT_NAME":"STARLINK-1293","ECCENTRICITY":"0.00008700","MEAN_MOTION":"15.06397774","LAUNCH_DATE":"2020-03-18","INCLINATION":"53.0554","MEAN_MOTION_DOT":"0.00000290","TLE_LINE2":"2 45411  53.0554 114.5079 0000870  81.0019 279.1068 15.06397774149321","BSTAR":"0.00003832600000","PERIAPSIS":"546.618"},{"MEAN_ANOMALY":"295.8371","ELEMENT_SET_NO":"999","OBJECT_ID":"2020-019BE","EPHEMERIS_TYPE":"0","CLASSIFICATION_TYPE":"U","RCS_SIZE":"LARGE","ARG_OF_PERICENTER":"64.2818","REF_FRAME":"TEME","OBJECT_NAME":"STARLINK-1296","MEAN_MOTION":"15.06396829","ECCENTRICITY":"0.00019380","INCLINATION":"53.0547","LAUNCH_DATE":"2020-03-18","MEAN_MOTION_DOT":"-0.00000797","TLE_LINE2":"2 45412  53.0547 114.0523 0001938  64.2818 295.8371 15.06396829149310","BSTAR":"-0.00003458900000","PERIAPSIS":"545.881","TLE_LINE1":"1 45412U 20019BE  22331.81982783 -.00000797  00000-0 -34589-4 0  9993","NORAD_CAT_ID":"45412","SEMIMAJOR_AXIS":"6925.358","SITE":"AFETR","DECAY_DATE":null,"MEAN_MOTION_DDOT":"0.0000000000000","PERIOD":"95.592","FILE":"3671921","OBJECT_TYPE":"PAYLOAD","CENTER_NAME":"EARTH","APOAPSIS":"548.565","MEAN_ELEMENT_THEORY":"SGP4","REV_AT_EPOCH":"14931","TIME_SYSTEM":"UTC","EPOCH":"2022-11-27T19:40:33.124512","RA_OF_ASC_NODE":"114.0523","GP_ID":"218988622","COUNTRY_CODE":"US"},{"LAUNCH_DATE":"2020-03-18","INCLINATION":"53.0547","ECCENTRICITY":"0.00015940","MEAN_MOTION":"15.06399322","BSTAR":"-0.00007649300000","TLE_LINE2":"2 45413  53.0547 114.2178 0001594  80.3932 279.7237 15.06399322149406","MEAN_MOTION_DOT":"-0.00001421","PERIAPSIS":"546.112","MEAN_ANOMALY":"279.7237","EPHEMERIS_TYPE":"0","CLASSIFICATION_TYPE":"U","OBJECT_ID":"2020-019BF","ELEMENT_SET_NO":"999","ARG_OF_PERICENTER":"80.3932","RCS_SIZE":"LARGE","OBJECT_NAME":"STARLINK-1298","REF_FRAME":"TEME","CENTER_NAME":"EARTH","OBJECT_TYPE":"PAYLOAD","TIME_SYSTEM":"UTC","EPOCH":"2022-11-27T18:47:28.156128","REV_AT_EPOCH":"14940","APOAPSIS":"548.320","MEAN_ELEMENT_THEORY":"SGP4","COUNTRY_CODE":"US","GP_ID":"218988872","RA_OF_ASC_NODE":"114.2178","NORAD_CAT_ID":"45413","TLE_LINE1":"1 45413U 20019BF  22331.78296477 -.00001421  00000-0 -76493-4 0  9993","DECAY_DATE":null,"SITE":"AFETR","MEAN_MOTION_DDOT":"0.0000000000000","SEMIMAJOR_AXIS":"6925.351","PERIOD":"95.592","FILE":"3671921"},{"APOAPSIS":"548.225","MEAN_ELEMENT_THEORY":"SGP4","REV_AT_EPOCH":"14929","EPOCH":"2022-11-27T18:26:14.836992","TIME_SYSTEM":"UTC","OBJECT_TYPE":"PAYLOAD","CENTER_NAME":"EARTH","RA_OF_ASC_NODE":"114.3095","COUNTRY_CODE":"US","GP_ID":"218987122","SEMIMAJOR_AXIS":"6925.365","DECAY_DATE":null,"SITE":"AFETR","MEAN_MOTION_DDOT":"0.0000000000000","TLE_LINE1":"1 45414U 20019BG  22331.76822728 -.00001518  00000-0 -83067-4 0  9998","NORAD_CAT_ID":"45414","FILE":"3671921","PERIOD":"95.592","TLE_LINE2":"2 45414  53.0563 114.3095 0001436  72.0660 288.0485 15.06394550149298","MEAN_MOTION_DOT":"-0.00001518","BSTAR":"-0.00008306700000","MEAN_MOTION":"15.06394550","ECCENTRICITY":"0.00014360","INCLINATION":"53.0563","LAUNCH_DATE":"2020-03-18","PERIAPSIS":"546.236","ELEMENT_SET_NO":"999","OBJECT_ID":"2020-019BG","CLASSIFICATION_TYPE":"U","EPHEMERIS_TYPE":"0","MEAN_ANOMALY":"288.0485","REF_FRAME":"TEME","OBJECT_NAME":"STARLINK-1309","RCS_SIZE":"LARGE","ARG_OF_PERICENTER":"72.0660"},{"ARG_OF_PERICENTER":"84.1377","RCS_SIZE":"LARGE","REF_FRAME":"TEME","OBJECT_NAME":"STARLINK-1316","MEAN_ANOMALY":"275.9760","ELEMENT_SET_NO":"999","EPHEMERIS_TYPE":"0","CLASSIFICATION_TYPE":"U","OBJECT_ID":"2020-019BH","PERIAPSIS":"546.314","ECCENTRICITY":"0.00013030","MEAN_MOTION":"15.06399092","LAUNCH_DATE":"2020-03-18","INCLINATION":"53.0541","MEAN_MOTION_DOT":"0.00002987","TLE_LINE2":"2 45415  53.0541 114.1895 0001303  84.1377 275.9760 15.06399092149335","BSTAR":"0.00021937000000","FILE":"3671921","PERIOD":"95.592","TLE_LINE1":"1 45415U 20019BH  22331.79403287  .00002987  00000-0  21937-3 0  9993","NORAD_CAT_ID":"45415","SEMIMAJOR_AXIS":"6925.351","DECAY_DATE":null,"SITE":"AFETR","MEAN_MOTION_DDOT":"0.0000000000000","RA_OF_ASC_NODE":"114.1895","COUNTRY_CODE":"US","GP_ID":"218987872","CENTER_NAME":"EARTH","OBJECT_TYPE":"PAYLOAD","REV_AT_EPOCH":"14933","APOAPSIS":"548.119","MEAN_ELEMENT_THEORY":"SGP4","TIME_SYSTEM":"UTC","EPOCH":"2022-11-27T19:03:24.439968"},{"MEAN_ANOMALY":"287.6679","ELEMENT_SET_NO":"999","OBJECT_ID":"2020-019BJ","EPHEMERIS_TYPE":"0","CLASSIFICATION_TYPE":"U","RCS_SIZE":"LARGE","ARG_OF_PERICENTER":"72.4478","REF_FRAME":"TEME","OBJECT_NAME":"STARLINK-1318","MEAN_MOTION":"15.06396831","ECCENTRICITY":"0.00015460","INCLINATION":"53.0545","LAUNCH_DATE":"2020-03-18","TLE_LINE2":"2 45416  53.0545 114.0249 0001546  72.4478 287.6679 15.06396831149329","MEAN_MOTION_DOT":"-0.00001327","BSTAR":"-0.00007018200000","PERIAPSIS":"546.153","TLE_LINE1":"1 45416U 20019BJ  22331.82719952 -.00001327  00000-0 -70182-4 0  9993","NORAD_CAT_ID":"45416","SEMIMAJOR_AXIS":"6925.358","DECAY_DATE":null,"SITE":"AFETR","MEAN_MOTION_DDOT":"0.0000000000000","FILE":"3671921","PERIOD":"95.592","OBJECT_TYPE":"PAYLOAD","CENTER_NAME":"EARTH","MEAN_ELEMENT_THEORY":"SGP4","APOAPSIS":"548.294","REV_AT_EPOCH":"14932","EPOCH":"2022-11-27T19:51:10.038528","TIME_SYSTEM":"UTC","RA_OF_ASC_NODE":"114.0249","COUNTRY_CODE":"US","GP_ID":"218988124"},{"RA_OF_ASC_NODE":"143.7084","GP_ID":"218988373","COUNTRY_CODE":"US","APOAPSIS":"548.223","MEAN_ELEMENT_THEORY":"SGP4","REV_AT_EPOCH":"14918","EPOCH":"2022-11-27T21:33:20.755296","TIME_SYSTEM":"UTC","OBJECT_TYPE":"PAYLOAD","CENTER_NAME":"EARTH","PERIOD":"95.593","FILE":"3671921","SEMIMAJOR_AXIS":"6925.374","DECAY_DATE":null,"SITE":"AFETR","MEAN_MOTION_DDOT":"0.0000000000000","TLE_LINE1":"1 45417U 20019BK  22331.89815689 -.00000420  00000-0 -93172-5 0  9993","NORAD_CAT_ID":"45417","PERIAPSIS":"546.255","MEAN_MOTION_DOT":"-0.00000420","TLE_LINE2":"2 45417  53.0547 143.7084 0001421  77.8723 282.2425 15.06391745149185","BSTAR":"-0.00000931720000","MEAN_MOTION":"15.06391745","ECCENTRICITY":"0.00014210","INCLINATION":"53.0547","LAUNCH_DATE":"2020-03-18","REF_FRAME":"TEME","OBJECT_NAME":"STARLINK-1286","RCS_SIZE":"LARGE","ARG_OF_PERICENTER":"77.8723","ELEMENT_SET_NO":"999","OBJECT_ID":"2020-019BK","CLASSIFICATION_TYPE":"U","EPHEMERIS_TYPE":"0","MEAN_ANOMALY":"282.2425"}];
